HST                     
1 20580U 90037B   26168.14321654  .00005620  00000+0  17616-3 0  9999
2 20580  28.4720  80.8753 0001816 141.8279 218.2446 15.30747004788561
POLAR                   
1 23802U 96013A   26167.26675754  .00000137  00000+0  00000+0 0  9997
2 23802  79.8528 227.0631 6469542 209.1106  89.7802  1.29846135144846
SWAS                    
1 25560U 98071A   26167.88317488  .00002487  00000+0  16074-3 0  9993
2 25560  69.8948 228.3034 0008653 260.5031  99.5155 15.09625233497229
CXO                     
1 25867U 99040B   26169.37713324  .00000529  00000+0  00000+0 0  9998
2 25867  56.2189 116.5542 7835469 310.3049   0.1821  0.37804062 17322
XMM-NEWTON              
1 25989U 99066A   26169.34668136 -.00000002  00000+0  00000+0 0  9995
2 25989  64.4794 282.9700 4673195  64.9038   0.0897  0.50127427 23010
TERRA                   
1 25994U 99068A   26168.15893560  .00000317  00000+0  73529-4 0  9991
2 25994  97.9456 217.7063 0001580 189.5468 254.9608 14.61103081409600
CLUSTER II-FM7 (SAMBA)  
1 26410U 00041A   26168.13893488  .00013373  00000+0  00000+0 0  9990
2 26410 149.9159  50.9864 9054007 268.1291 359.6411  0.44868040 20307
CLUSTER II-FM8 (TANGO)  
1 26464U 00045B   26166.18671727  .00011728  00000+0  00000+0 0  9998
2 26464 150.1502  51.7537 9056828 268.7236   2.8065  0.44400569 20306
ODIN                    
1 26702U 01007A   26168.09444793  .00153404  00000+0  98467-3 0  9991
2 26702  97.3826 209.0303 0006702 143.1796 216.9931 15.75772883389382
TIMED                   
1 26998U 01055B   26167.60674441  .00000880  00000+0  83424-4 0  9999
2 26998  74.0674 236.1871 0001085 336.2432  23.8702 14.95293800330738
CORIOLIS                
1 27640U 03001A   26167.98578602  .00000075  00000+0  55828-4 0  9993
2 27640  98.7125 174.8736 0013361 209.3719 150.6707 14.19944723214191
SORCE                   
1 27651U 03004A   26167.74107249  .00002150  00000+0  16462-3 0  9993
2 27651  39.9906 264.2238 0016526  45.7417 314.4731 15.03711339271831
MOST                    
1 27843U 03031D   26168.00009503  .00000043  00000+0  39714-4 0  9995
2 27843  98.7045 175.7287 0008731 251.0607 108.9624 14.21322473190689
SCISAT 1                
1 27858U 03036A   26168.09057667  .00000383  00000+0  53543-4 0  9992
2 27858  73.9284 171.5347 0008544 241.2790 118.7528 14.81447462231435
SWIFT                   
1 28485U 04047A   26166.40597521  .00042527  00000+0  35480-3 0  9998
2 28485  20.5516 198.6409 0001619 255.9834 104.0432 15.68175033186589
HINODE (SOLAR-B)        
1 29479U 06041A   26168.04910784  .00000550  00000+0  10291-3 0  9993
2 29479  98.0547 184.2037 0016020 290.2313  69.7169 14.68622988 54854
SHIJIAN-6 02A (SJ-6 02A)
1 29505U 06046A   26168.15755264  .00003332  00000+0  17242-3 0  9994
2 29505  97.6353 209.2235 0004485 124.7699 235.3957 15.16941220 72260
SHIJIAN-6 02B (SJ-6 02B)
1 29506U 06046B   26168.21304159  .00000883  00000+0  73054-4 0  9997
2 29506  97.7153 197.2716 0015371  60.3826 299.8927 15.01376844 70744
FGRST (GLAST)           
1 33053U 08029A   26167.77023670  .00002243  00000+0  76629-4 0  9991
2 33053  25.5803 207.3783 0007748 324.2186  35.7833 15.23945020995778
SDO                     
1 36395U 10005A   26167.50926725 -.00000097  00000+0  00000+0 0  9995
2 36395  34.6508  86.3517 0001708  44.3809 215.2958  1.00269934 60055
CRYOSAT 2               
1 36508U 10013A   26168.15042845  .00000188  00000+0  46051-4 0  9995
2 36508  92.0355 277.2925 0002155  89.6091 270.5363 14.51899125858077
X-SAT                   
1 37389U 11015C   26168.22552569 -.00000136  00000+0 -40161-4 0  9994
2 37389  98.3506 145.2472 0013908 348.4511  11.6349 14.25205585787682
GCOM-W1 (SHIZUKU)       
1 38337U 12025A   26168.09184125  .00000376  00000+0  93505-4 0  9998
2 38337  98.2021 108.6489 0001790  75.1740 295.5935 14.57124589749021
NUSTAR                  
1 38358U 12031A   26168.25004630  .00015592  00000+0  90729-3 0  9998
2 38358   6.0288  33.6628 0006548 115.3219 315.4874 15.08801231  1301
NEOSSAT                 
1 39089U 13009D   26168.07014196  .00000110  00000+0  52654-4 0  9990
2 39089  98.4177 348.1056 0009887 244.1420 115.8747 14.35826373696728
BRITE-AUSTRIA           
1 39091U 13009F   26167.99917520  .00000135  00000+0  60603-4 0  9996
2 39091  98.3994 347.4395 0009143 237.0662 122.9646 14.36542078697028
IRIS                    
1 39197U 13033A   26168.09754061  .00000791  00000+0  96747-4 0  9997
2 39197  97.9329   7.3749 0023552 322.1568  37.7990 14.85885087700369
HISAKI (SPRINT-A)       
1 39253U 13049A   26167.83421073  .00000116  00000+0  71628-4 0  9994
2 39253  29.7184 221.8078 0136865  13.9892 346.4420 13.55544715631377
CASSIOPE                
1 39265U 13055A   26167.96523282  .00045931 -47950-6  50172-3 0  9990
2 39265  80.9147  66.9918 0292768  63.1857 299.8995 15.25172434667632
STSAT-3                 
1 39422U 13066G   26168.17936748  .00002966  00000+0  22613-3 0  9993
2 39422  97.6223 138.0677 0011185  44.9809 315.2321 15.02758022684202
SWARM B                 
1 39451U 13067A   26168.13384566  .00002794  00000+0  99376-4 0  9997
2 39451  87.7437 342.3326 0003279  85.7811 274.3813 15.28551260683239
